{"type": "FeatureCollection", "features": [ {"type": "Feature", "properties": {"norad_id": 40118, "name": "GAOFEN-2", "group": "resource", "lat": 43.6019103960656, "lon": -111.84661691411776, "alt_km": 620.8798795668672, "timestamp": "2025-12-27T05:29:38.851297+00:00", "meta": {"OBJECT_NAME": "GAOFEN-2", "OBJECT_ID": "2014-049A", "EPOCH": "2025-12-26T22:23:46.137696", "MEAN_MOTION": 14.80632532, "ECCENTRICITY": 0.00087089, "INCLINATION": 98.0361, "RA_OF_ASC_NODE": 60.1248, "ARG_OF_PERICENTER": 74.1369, "MEAN_ANOMALY": 286.0803, "EPHEMERIS_TYPE": 0, "CLASSIFICATION_TYPE": "U", "NORAD_CAT_ID": 40118, "ELEMENT_SET_NO": 999, "REV_AT_EPOCH": 61374, "BSTAR": 0.00013746238, "MEAN_MOTION_DOT": 1.002e-05, "MEAN_MOTION_DDOT": 0}, "tle": {"line1": "1 40118U 14049A   25360.93317289  .00001002  00000+0  13746-3 0  9996", "line2": "2 40118  98.0361  60.1248 0008708  74.1369 286.0803 14.80632532613749"}}, "geometry": {"type": "Point", "coordinates": [-111.84661691411776, 43.6019103960656]}}, {"type": "Feature", "properties": {"norad_id": 40143, "name": "YAOGAN-21", "group": "resource", "lat": -4.445006435145293, "lon": -136.6501809770155, "alt_km": 503.59690718104684, "timestamp": "2025-12-27T05:29:38.851312+00:00", "meta": {"OBJECT_NAME": "YAOGAN-21", "OBJECT_ID": "2014-053A", "EPOCH": "2025-12-26T22:23:00.386304", "MEAN_MOTION": 15.23816238, "ECCENTRICITY": 0.00083055, "INCLINATION": 97.1737, "RA_OF_ASC_NODE": 43.6274, "ARG_OF_PERICENTER": 354.2078, "MEAN_ANOMALY": 5.9062, "EPHEMERIS_TYPE": 0, "CLASSIFICATION_TYPE": "U", "NORAD_CAT_ID": 40143, "ELEMENT_SET_NO": 999, "REV_AT_EPOCH": 62870, "BSTAR": 0.00019350583, "MEAN_MOTION_DOT": 4.597e-05, "MEAN_MOTION_DDOT": 0}, "tle": {"line1": "1 40143U 14053A   25360.93264336  .00004597  00000+0  19351-3 0  9993", "line2": "2 40143  97.1737  43.6274 0008305 354.2078   5.9062 15.23816238628703"}}, "geometry": {"type": "Point", "coordinates": [-136.6501809770155, -4.445006435145293]}}, {"type": "Feature", "properties": {"norad_id": 40275, "name": "YAOGAN-22", "group": "resource", "lat": -22.898111418111668, "lon": 149.45252914582719, "alt_km": 1209.5774523743148, "timestamp": "2025-12-27T05:29:38.851323+00:00", "meta": {"OBJECT_NAME": "YAOGAN-22", "OBJECT_ID": "2014-063A", "EPOCH": "2025-12-26T22:18:41.744448", "MEAN_MOTION": 13.15523322, "ECCENTRICITY": 0.00061209, "INCLINATION": 100.7431, "RA_OF_ASC_NODE": 144.55, "ARG_OF_PERICENTER": 214.2749, "MEAN_ANOMALY": 145.7967, "EPHEMERIS_TYPE": 0, "CLASSIFICATION_TYPE": "U", "NORAD_CAT_ID": 40275, "ELEMENT_SET_NO": 999, "REV_AT_EPOCH": 53716, "BSTAR": 6.3747025e-05, "MEAN_MOTION_DOT": -2.3e-07, "MEAN_MOTION_DDOT": 0}, "tle": {"line1": "1 40275U 14063A   25360.92964982 -.00000023  00000+0  63747-4 0  9993", "line2": "2 40275 100.7431 144.5500 0006120 214.2749 145.7967 13.15523322537161"}}, "geometry": {"type": "Point", "coordinates": [149.45252914582719, -22.898111418111668]}}, {"type": "Feature", "properties": {"norad_id": 40298, "name": "ASNARO", "group": "resource", "lat": 18.223128934843228, "lon": 74.38106360485226, "alt_km": 505.26741501795186, "timestamp": "2025-12-27T05:29:38.851334+00:00", "meta": {"OBJECT_NAME": "ASNARO", "OBJECT_ID": "2014-070A", "EPOCH": "2025-12-26T23:05:34.016064", "MEAN_MOTION": 15.19780996, "ECCENTRICITY": 0.00056426, "INCLINATION": 97.3632, "RA_OF_ASC_NODE": 76.5609, "ARG_OF_PERICENTER": 84.0715, "MEAN_ANOMALY": 276.1163, "EPHEMERIS_TYPE": 0, "CLASSIFICATION_TYPE": "U", "NORAD_CAT_ID": 40298, "ELEMENT_SET_NO": 999, "REV_AT_EPOCH": 61785, "BSTAR": 0.00024627312, "MEAN_MOTION_DOT": 5.206e-05, "MEAN_MOTION_DDOT": 0}, "tle": {"line1": "1 40298U 14070A   25360.96219926  .00005206  00000+0  24627-3 0  9991", "line2": "2 40298  97.3632  76.5609 0005642  84.0715 276.1163 15.19780996617858"}}, "geometry": {"type": "Point", "coordinates": [74.38106360485226, 18.223128934843228]}}, {"type": "Feature", "properties": {"norad_id": 40310, "name": "YAOGAN-24", "group": "resource", "lat": -67.4628302320125, "lon": -67.73214825583538, "alt_km": 658.1837109417675, "timestamp": "2025-12-27T05:29:38.851343+00:00", "meta": {"OBJECT_NAME": "YAOGAN-24", "OBJECT_ID": "2014-072A", "EPOCH": "2025-12-26T23:29:27.350592", "MEAN_MOTION": 14.76204963, "ECCENTRICITY": 0.00152021, "INCLINATION": 98.1232, "RA_OF_ASC_NODE": 132.1488, "ARG_OF_PERICENTER": 95.4728, "MEAN_ANOMALY": 264.8216, "EPHEMERIS_TYPE": 0, "CLASSIFICATION_TYPE": "U", "NORAD_CAT_ID": 40310, "ELEMENT_SET_NO": 999, "REV_AT_EPOCH": 59831, "BSTAR": 0.00011537463, "MEAN_MOTION_DOT": 7.47e-06, "MEAN_MOTION_DDOT": 0}, "tle": {"line1": "1 40310U 14072A   25360.97878878  .00000747  00000+0  11537-3 0  9997", "line2": "2 40310  98.1232 132.1488 0015202  95.4728 264.8216 14.76204963598314"}}, "geometry": {"type": "Point", "coordinates": [-67.73214825583538, -67.4628302320125]}}, {"type": "Feature", "properties": {"norad_id": 40336, "name": "CBERS 4", "group": "resource", "lat": 30.533971267574007, "lon": 53.79144962828507, "alt_km": 771.1201884641068, "timestamp": "2025-12-27T05:29:38.851354+00:00", "meta": {"OBJECT_NAME": "CBERS 4", "OBJECT_ID": "2014-079A", "EPOCH": "2025-12-26T22:39:33.643296", "MEAN_MOTION": 14.35522435, "ECCENTRICITY": 0.00018959, "INCLINATION": 98.3285, "RA_OF_ASC_NODE": 58.4733, "ARG_OF_PERICENTER": 97.255, "MEAN_ANOMALY": 262.8851, "EPHEMERIS_TYPE": 0, "CLASSIFICATION_TYPE": "U", "NORAD_CAT_ID": 40336, "ELEMENT_SET_NO": 999, "REV_AT_EPOCH": 57924, "BSTAR": -5.110602e-06, "MEAN_MOTION_DOT": -5.7e-07, "MEAN_MOTION_DDOT": 0}, "tle": {"line1": "1 40336U 14079A   25360.94413939 -.00000057  00000+0 -51106-5 0  9996", "line2": "2 40336  98.3285  58.4733 0001895  97.2550 262.8851 14.35522435579247"}}, "geometry": {"type": "Point", "coordinates": [53.79144962828507, 30.533971267574007]}}, {"type": "Feature", "properties": {"norad_id": 40362, "name": "YAOGAN-26", "group": "resource", "lat": 1.9111737655118206, "lon": 1.1536509451309487, "alt_km": 446.83358707416846, "timestamp": "2025-12-27T05:29:38.851364+00:00", "meta": {"OBJECT_NAME": "YAOGAN-26", "OBJECT_ID": "2014-088A", "EPOCH": "2025-12-26T23:14:49.993152", "MEAN_MOTION": 15.39815072, "ECCENTRICITY": 0.00041106, "INCLINATION": 97.0648, "RA_OF_ASC_NODE": 1.1395, "ARG_OF_PERICENTER": 344.0064, "MEAN_ANOMALY": 16.1053, "EPHEMERIS_TYPE": 0, "CLASSIFICATION_TYPE": "U", "NORAD_CAT_ID": 40362, "ELEMENT_SET_NO": 999, "REV_AT_EPOCH": 61113, "BSTAR": 0.00068857448, "MEAN_MOTION_DOT": 0.00027296, "MEAN_MOTION_DDOT": 0}, "tle": {"line1": "1 40362U 14088A   25360.96863418  .00027296  00000+0  68857-3 0  9999", "line2": "2 40362  97.0648   1.1395 0004110 344.0064  16.1053 15.39815072611136"}}, "geometry": {"type": "Point", "coordinates": [1.1536509451309487, 1.9111737655118206]}}, {"type": "Feature", "properties": {"norad_id": 40376, "name": "SMAP", "group": "resource", "lat": -62.34928208331879, "lon": 169.91193183654846, "alt_km": 690.2823899057985, "timestamp": "2025-12-27T05:29:38.851375+00:00", "meta": {"OBJECT_NAME": "SMAP", "OBJECT_ID": "2015-003A", "EPOCH": "2025-12-26T21:49:15.577248", "MEAN_MOTION": 14.63362931, "ECCENTRICITY": 0.00012366, "INCLINATION": 98.1291, "RA_OF_ASC_NODE": 5.4289, "ARG_OF_PERICENTER": 92.6272, "MEAN_ANOMALY": 267.5071, "EPHEMERIS_TYPE": 0, "CLASSIFICATION_TYPE": "U", "NORAD_CAT_ID": 40376, "ELEMENT_SET_NO": 999, "REV_AT_EPOCH": 58242, "BSTAR": 0.00014019906, "MEAN_MOTION_DOT": 6.77e-06, "MEAN_MOTION_DDOT": 0}, "tle": {"line1": "1 40376U 15003A   25360.90920807  .00000677  00000+0  14020-3 0  9999", "line2": "2 40376  98.1291   5.4289 0001236  92.6272 267.5071 14.63362931582427"}}, "geometry": {"type": "Point", "coordinates": [169.91193183654846, -62.34928208331879]}}, {"type": "Feature", "properties": {"norad_id": 40536, "name": "KOMPSAT-3A", "group": "resource", "lat": -5.908195868734268, "lon": 155.5821468487168, "alt_km": 436.7322326719668, "timestamp": "2025-12-27T05:29:38.851385+00:00", "meta": {"OBJECT_NAME": "KOMPSAT-3A", "OBJECT_ID": "2015-014A", "EPOCH": "2025-12-26T22:28:22.276416", "MEAN_MOTION": 15.44478084, "ECCENTRICITY": 0.00056602, "INCLINATION": 97.6806, "RA_OF_ASC_NODE": 336.0733, "ARG_OF_PERICENTER": 96.7324, "MEAN_ANOMALY": 263.4568, "EPHEMERIS_TYPE": 0, "CLASSIFICATION_TYPE": "U", "NORAD_CAT_ID": 40536, "ELEMENT_SET_NO": 999, "REV_AT_EPOCH": 59514, "BSTAR": 0.00049439855, "MEAN_MOTION_DOT": 0.00022856, "MEAN_MOTION_DDOT": 0}, "tle": {"line1": "1 40536U 15014A   25360.93636894  .00022856  00000+0  49440-3 0  9999", "line2": "2 40536  97.6806 336.0733 0005660  96.7324 263.4568 15.44478084595142"}}, "geometry": {"type": "Point", "coordinates": [155.5821468487168, -5.908195868734268]}}, {"type": "Feature", "properties": {"norad_id": 40697, "name": "SENTINEL-2A", "group": "resource", "lat": -36.76428613960912, "lon": -112.91219360589616, "alt_km": 795.8094538669475, "timestamp": "2025-12-27T05:29:38.851395+00:00", "meta": {"OBJECT_NAME": "SENTINEL-2A", "OBJECT_ID": "2015-028A", "EPOCH": "2025-12-26T23:26:50.740224", "MEAN_MOTION": 14.30810675, "ECCENTRICITY": 0.00010525, "INCLINATION": 98.5723, "RA_OF_ASC_NODE": 73.3101, "ARG_OF_PERICENTER": 89.0053, "MEAN_ANOMALY": 271.1251, "EPHEMERIS_TYPE": 0, "CLASSIFICATION_TYPE": "U", "NORAD_CAT_ID": 40697, "ELEMENT_SET_NO": 999, "REV_AT_EPOCH": 54910, "BSTAR": 2.9448126e-05, "MEAN_MOTION_DOT": 3.4e-07, "MEAN_MOTION_DDOT": 0}, "tle": {"line1": "1 40697U 15028A   25360.97697616  .00000034  00000+0  29448-4 0  9996", "line2": "2 40697  98.5723  73.3101 0001052  89.0053 271.1251 14.30810675549103"}}, "geometry": {"type": "Point", "coordinates": [-112.91219360589616, -36.76428613960912]}}]}